OBJECT_NAME,OBJECT_ID,EPOCH,MEAN_MOTION,ECCENTRICITY,INCLINATION,RA_OF_ASC_NODE,ARG_OF_PERICENTER,MEAN_ANOMALY,EPHEMERIS_TYPE,CLASSIFICATION_TYPE,NORAD_CAT_ID,ELEMENT_SET_NO,REV_AT_EPOCH,BSTAR,MEAN_MOTION_DOT,MEAN_MOTION_DDOT
GPS BIIR-5  (PRN 22),2000-040A,2026-06-13T07:15:54.055008,2.00557597,.0121064,54.8518,215.3166,302.4572,56.6362,0,U,26407,999,18987,0,.84E-6,0
GPS BIIR-8  (PRN 16),2003-005A,2026-06-13T02:53:04.778016,2.00560725,.01479349,54.8828,215.1306,53.0735,310.1871,0,U,27663,999,17123,0,.85E-6,0
GPS BIIR-13 (PRN 02),2004-045A,2026-06-13T08:05:24.294336,2.00555605,.01698057,55.1372,325.0509,316.2769,61.7561,0,U,28474,999,15835,0,-.74E-6,0
GPS BIIRM-1 (PRN 17),2005-038A,2026-06-13T08:51:06.624288,2.00565849,.01278318,54.8812,273.3317,296.1247,68.3770,0,U,28874,999,15176,0,-.28E-6,0
INMARSAT 4-F2 (SOUTHPAN/PRN 122),2005-044A,2026-06-13T13:50:01.557024,1.00271325,.00028107,5.0897,43.7030,36.3582,172.8276,0,U,28899,999,7548,0,-.254E-5,0
GPS BIIRM-2 (PRN 31),2006-042A,2026-06-13T03:29:18.139776,2.00570029,.01065424,54.7102,151.4994,54.3122,47.2287,0,U,29486,999,14431,0,.83E-6,0
GPS BIIRM-3 (PRN 12),2006-052A,2026-06-12T22:20:47.551488,2.00557944,.00851717,54.9353,214.1750,90.8136,270.2532,0,U,29601,999,14332,0,.87E-6,0
GPS BIIRM-4 (PRN 15),2007-047A,2026-06-13T05:39:51.942240,2.00555341,.01666269,54.0924,80.2285,87.3036,274.5961,0,U,32260,999,13673,0,-.4E-6,0
COSMOS 2433 (720),2007-052A,2026-06-10T08:18:16.158240,2.13104347,.00022232,65.5811,316.1641,191.9747,168.0168,0,U,32275,999,14491,0,-.36E-6,0
COSMOS 2432 (719),2007-052B,2026-06-11T08:30:05.798592,2.13103380,.0007764,65.5974,316.2581,332.8636,24.5023,0,U,32276,999,14495,0,-.41E-6,0
GPS BIIRM-5 (PRN 29),2007-062A,2026-06-13T13:01:10.273728,2.00559837,.00356676,55.0347,274.2993,165.1238,183.4313,0,U,32384,999,13543,0,-.29E-6,0
COSMOS 2434 (721),2007-065A,2026-06-13T01:36:38.055168,2.13101303,.00011522,64.3199,192.0547,331.0720,206.3088,0,U,32393,999,14368,0,.117E-5,0
COSMOS 2436 (723),2007-065C,2026-06-13T06:12:49.161312,2.13100224,.0017212,64.3263,192.1203,354.2143,102.6396,0,U,32395,999,14364,0,.116E-5,0
GPS BIIRM-6 (PRN 07),2008-012A,2026-06-13T03:32:42.703008,2.00572264,.0211213,54.4968,150.0860,247.7974,109.9434,0,U,32711,999,13367,0,.8E-6,0
GPS BIIRM-8 (PRN 05),2009-043A,2026-06-12T09:12:38.827008,2.00554404,.00537837,56.2072,27.6401,83.0708,95.4600,0,U,35752,999,12326,0,-.64E-6,0
COSMOS 2456 (730),2009-070A,2026-06-13T07:57:59.960736,2.13103825,.00046901,65.0089,71.1038,329.5299,209.1509,0,U,36111,999,12834,0,-.33E-6,0
COSMOS 2457 (733),2009-070B,2026-06-13T03:47:59.285184,2.13101263,.0002619,64.9943,70.9539,125.5339,47.3970,0,U,36112,999,12834,0,-.33E-6,0
GPS BIIF-1  (PRN 25),2010-022A,2026-06-12T23:17:20.430240,2.00562166,.0126334,54.2705,208.7319,66.1291,294.4342,0,U,36585,999,11750,0,.93E-6,0
BEIDOU-2 IGSO-3 (C08),2011-013A,2026-06-10T17:11:36.843360,1.00268972,.00343535,62.3981,40.2143,184.2630,40.3873,0,U,37384,999,5559,0,-.195E-5,0
GSAT0101 (GALILEO-PFM),2011-060A,2026-06-12T17:48:57.349152,1.70475562,.00031174,56.9957,341.8816,51.3749,308.6629,0,U,37846,999,9104,0,-.71E-6,0
GSAT0102 (GALILEO-FM2),2011-060B,2026-06-07T09:39:10.082592,1.70476015,.00034343,57.0009,342.0270,13.7700,354.5257,0,U,37847,999,9096,0,-.63E-6,0
COSMOS 2476 (744),2011-064A,2026-06-13T08:47:49.485408,2.13103919,.00227312,65.2676,73.0007,238.9288,234.6258,0,U,37867,999,11368,0,-.31E-6,0
COSMOS 2477 (745),2011-064B,2026-06-13T04:09:58.519008,2.13103103,.00198843,65.2740,73.0865,240.5145,265.3672,0,U,37868,999,11367,0,-.31E-6,0
COSMOS 2475 (743),2011-064C,2026-06-13T05:06:46.528128,2.13101955,.00255895,65.2809,73.1067,253.3203,237.9576,0,U,37869,999,11368,0,-.31E-6,0
